[{"OBJECT_NAME":"STARLINK-3862","OBJECT_ID":"2022-049W","EPOCH":"2026-03-09T09:21:32.946624","MEAN_MOTION":15.08839619,"ECCENTRICITY":0.00014671,"INCLINATION":53.2166,"RA_OF_ASC_NODE":60.4748,"ARG_OF_PERICENTER":81.7422,"MEAN_ANOMALY":278.3736,"EPHEMERIS_TYPE":0,"CLASSIFICATION_TYPE":"U","NORAD_CAT_ID":52471,"ELEMENT_SET_NO":999,"REV_AT_EPOCH":21220,"BSTAR":7.4687216e-5,"MEAN_MOTION_DOT":9.01e-6,"MEAN_MOTION_DDOT":0},{"OBJECT_NAME":"CZ-4B DEB","OBJECT_ID":"2008-053J","EPOCH":"2026-03-09T11:59:22.469568","MEAN_MOTION":15.1637526,"ECCENTRICITY":0.00601661,"INCLINATION":97.7872,"RA_OF_ASC_NODE":170.5072,"ARG_OF_PERICENTER":304.792,"MEAN_ANOMALY":54.7659,"EPHEMERIS_TYPE":0,"CLASSIFICATION_TYPE":"U","NORAD_CAT_ID":35573,"ELEMENT_SET_NO":999,"REV_AT_EPOCH":91868,"BSTAR":0.0017688276,"MEAN_MOTION_DOT":0.00036031,"MEAN_MOTION_DDOT":0}]
